{"type": "FeatureCollection", "features": [{"id": "0", "type": "Feature", "properties": {"point_id": 1, "latitude": 13.08, "longitude": 80.27, "utm_x_m": 420861.3035981671, "utm_y_m": 1446096.7473486234, "land_cover_code": 50, "is_urban": true, "is_rural": false, "is_water": false, "lst_day_celsius": 38.0, "lst_night_celsius": 28.0, "suhii_day_celsius": 8.0, "suhii_night_celsius": 6.0, "delta_lst_diurnal": 10.0, "heat_persistence_index": 0.73, "gi_zscore_day": 2.5, "gi_pvalue_day": 0.01, "gi_zscore_night": 2.8, "gi_pvalue_night": 0.005, "day_hotspot_significance": 95.0, "night_hotspot_significance": 99.0, "hotspot_id": "HOT_0001", "city_temperature_percentile": 90.0, "temperature_rank": 40, "temperature_total_pixels": 50, "hotspot_confidence_score": 85.0, "ndvi": 0.2, "ndbi": 0.4, "ndwi": -0.1, "building_density": 0.8, "distance_to_water_m": 200.0, "distance_to_roads_m": 30.0, "distance_to_parks_m": 800.0, "elevation_m": 12.0, "slope_deg": 1.5, "aspect_deg": 90.0, "thermal_retention_class": "High Nocturnal Heat Retention", "confidence_class": "Very High", "hotspot_classification": "95% Confidence Hotspot", "sensor": "Landsat-8/9 & Sentinel-2", "capture_date": "2024-05-15", "scene_id": "LC09_L2SP_142051_20240515", "processing_version": "1.0.0"}, "geometry": {"type": "Point", "coordinates": [80.27, 13.08]}}, {"id": "1", "type": "Feature", "properties": {"point_id": 2, "latitude": 13.081, "longitude": 80.271, "utm_x_m": 420970.0365448521, "utm_y_m": 1446207.0299512034, "land_cover_code": 50, "is_urban": true, "is_rural": false, "is_water": false, "lst_day_celsius": 38.0, "lst_night_celsius": 28.0, "suhii_day_celsius": 8.0, "suhii_night_celsius": 6.0, "delta_lst_diurnal": 10.0, "heat_persistence_index": 0.73, "gi_zscore_day": 2.5, "gi_pvalue_day": 0.01, "gi_zscore_night": 2.8, "gi_pvalue_night": 0.005, "day_hotspot_significance": 95.0, "night_hotspot_significance": 99.0, "hotspot_id": "HOT_0001", "city_temperature_percentile": 90.0, "temperature_rank": 39, "temperature_total_pixels": 50, "hotspot_confidence_score": 85.0, "ndvi": 0.2, "ndbi": 0.4, "ndwi": -0.1, "building_density": 0.8, "distance_to_water_m": 200.0, "distance_to_roads_m": 30.0, "distance_to_parks_m": 800.0, "elevation_m": 12.0, "slope_deg": 1.5, "aspect_deg": 90.0, "thermal_retention_class": "High Nocturnal Heat Retention", "confidence_class": "Very High", "hotspot_classification": "95% Confidence Hotspot", "sensor": "Landsat-8/9 & Sentinel-2", "capture_date": "2024-05-15", "scene_id": "LC09_L2SP_142051_20240515", "processing_version": "1.0.0"}, "geometry": {"type": "Point", "coordinates": [80.271, 13.081]}}, {"id": "2", "type": "Feature", "properties": {"point_id": 3, "latitude": 13.082, "longitude": 80.27199999999999, "utm_x_m": 421078.7686197155, "utm_y_m": 1446317.3129461948, "land_cover_code": 50, "is_urban": true, "is_rural": false, "is_water": false, "lst_day_celsius": 38.0, "lst_night_celsius": 28.0, "suhii_day_celsius": 8.0, "suhii_night_celsius": 6.0, "delta_lst_diurnal": 10.0, "heat_persistence_index": 0.73, "gi_zscore_day": 2.5, "gi_pvalue_day": 0.01, "gi_zscore_night": 2.8, "gi_pvalue_night": 0.005, "day_hotspot_significance": 95.0, "night_hotspot_significance": 99.0, "hotspot_id": "HOT_0001", "city_temperature_percentile": 90.0, "temperature_rank": 38, "temperature_total_pixels": 50, "hotspot_confidence_score": 85.0, "ndvi": 0.2, "ndbi": 0.4, "ndwi": -0.1, "building_density": 0.8, "distance_to_water_m": 200.0, "distance_to_roads_m": 30.0, "distance_to_parks_m": 800.0, "elevation_m": 12.0, "slope_deg": 1.5, "aspect_deg": 90.0, "thermal_retention_class": "High Nocturnal Heat Retention", "confidence_class": "Very High", "hotspot_classification": "95% Confidence Hotspot", "sensor": "Landsat-8/9 & Sentinel-2", "capture_date": "2024-05-15", "scene_id": "LC09_L2SP_142051_20240515", "processing_version": "1.0.0"}, "geometry": {"type": "Point", "coordinates": [80.27199999999999, 13.082]}}, {"id": "3", "type": "Feature", "properties": {"point_id": 4, "latitude": 13.083, "longitude": 80.273, "utm_x_m": 421187.4998226954, "utm_y_m": 1446427.5963336905, "land_cover_code": 50, "is_urban": true, "is_rural": false, "is_water": false, "lst_day_celsius": 38.0, "lst_night_celsius": 28.0, "suhii_day_celsius": 8.0, "suhii_night_celsius": 6.0, "delta_lst_diurnal": 10.0, "heat_persistence_index": 0.73, "gi_zscore_day": 2.5, "gi_pvalue_day": 0.01, "gi_zscore_night": 2.8, "gi_pvalue_night": 0.005, "day_hotspot_significance": 95.0, "night_hotspot_significance": 99.0, "hotspot_id": "HOT_0001", "city_temperature_percentile": 90.0, "temperature_rank": 37, "temperature_total_pixels": 50, "hotspot_confidence_score": 85.0, "ndvi": 0.2, "ndbi": 0.4, "ndwi": -0.1, "building_density": 0.8, "distance_to_water_m": 200.0, "distance_to_roads_m": 30.0, "distance_to_parks_m": 800.0, "elevation_m": 12.0, "slope_deg": 1.5, "aspect_deg": 90.0, "thermal_retention_class": "High Nocturnal Heat Retention", "confidence_class": "Very High", "hotspot_classification": "95% Confidence Hotspot", "sensor": "Landsat-8/9 & Sentinel-2", "capture_date": "2024-05-15", "scene_id": "LC09_L2SP_142051_20240515", "processing_version": "1.0.0"}, "geometry": {"type": "Point", "coordinates": [80.273, 13.083]}}, {"id": "4", "type": "Feature", "properties": {"point_id": 5, "latitude": 13.084, "longitude": 80.274, "utm_x_m": 421296.2301537202, "utm_y_m": 1446537.8801137824, "land_cover_code": 50, "is_urban": true, "is_rural": false, "is_water": false, "lst_day_celsius": 38.0, "lst_night_celsius": 28.0, "suhii_day_celsius": 8.0, "suhii_night_celsius": 6.0, "delta_lst_diurnal": 10.0, "heat_persistence_index": 0.73, "gi_zscore_day": 2.5, "gi_pvalue_day": 0.01, "gi_zscore_night": 2.8, "gi_pvalue_night": 0.005, "day_hotspot_significance": 95.0, "night_hotspot_significance": 99.0, "hotspot_id": "HOT_0001", "city_temperature_percentile": 90.0, "temperature_rank": 36, "temperature_total_pixels": 50, "hotspot_confidence_score": 85.0, "ndvi": 0.2, "ndbi": 0.4, "ndwi": -0.1, "building_density": 0.8, "distance_to_water_m": 200.0, "distance_to_roads_m": 30.0, "distance_to_parks_m": 800.0, "elevation_m": 12.0, "slope_deg": 1.5, "aspect_deg": 90.0, "thermal_retention_class": "High Nocturnal Heat Retention", "confidence_class": "Very High", "hotspot_classification": "95% Confidence Hotspot", "sensor": "Landsat-8/9 & Sentinel-2", "capture_date": "2024-05-15", "scene_id": "LC09_L2SP_142051_20240515", "processing_version": "1.0.0"}, "geometry": {"type": "Point", "coordinates": [80.274, 13.084]}}, {"id": "5", "type": "Feature", "properties": {"point_id": 6, "latitude": 13.085, "longitude": 80.27499999999999, "utm_x_m": 421404.95961272385, "utm_y_m": 1446648.1642865643, "land_cover_code": 50, "is_urban": true, "is_rural": false, "is_water": false, "lst_day_celsius": 38.0, "lst_night_celsius": 28.0, "suhii_day_celsius": 8.0, "suhii_night_celsius": 6.0, "delta_lst_diurnal": 10.0, "heat_persistence_index": 0.73, "gi_zscore_day": 2.5, "gi_pvalue_day": 0.01, "gi_zscore_night": 2.8, "gi_pvalue_night": 0.005, "day_hotspot_significance": 95.0, "night_hotspot_significance": 99.0, "hotspot_id": "HOT_0001", "city_temperature_percentile": 90.0, "temperature_rank": 35, "temperature_total_pixels": 50, "hotspot_confidence_score": 85.0, "ndvi": 0.2, "ndbi": 0.4, "ndwi": -0.1, "building_density": 0.8, "distance_to_water_m": 200.0, "distance_to_roads_m": 30.0, "distance_to_parks_m": 800.0, "elevation_m": 12.0, "slope_deg": 1.5, "aspect_deg": 90.0, "thermal_retention_class": "High Nocturnal Heat Retention", "confidence_class": "Very High", "hotspot_classification": "95% Confidence Hotspot", "sensor": "Landsat-8/9 & Sentinel-2", "capture_date": "2024-05-15", "scene_id": "LC09_L2SP_142051_20240515", "processing_version": "1.0.0"}, "geometry": {"type": "Point", "coordinates": [80.27499999999999, 13.085]}}, {"id": "6", "type": "Feature", "properties": {"point_id": 7, "latitude": 13.086, "longitude": 80.276, "utm_x_m": 421513.68819964025, "utm_y_m": 1446758.4488521279, "land_cover_code": 50, "is_urban": true, "is_rural": false, "is_water": false, "lst_day_celsius": 38.0, "lst_night_celsius": 28.0, "suhii_day_celsius": 8.0, "suhii_night_celsius": 6.0, "delta_lst_diurnal": 10.0, "heat_persistence_index": 0.73, "gi_zscore_day": 2.5, "gi_pvalue_day": 0.01, "gi_zscore_night": 2.8, "gi_pvalue_night": 0.005, "day_hotspot_significance": 95.0, "night_hotspot_significance": 99.0, "hotspot_id": "HOT_0001", "city_temperature_percentile": 90.0, "temperature_rank": 34, "temperature_total_pixels": 50, "hotspot_confidence_score": 85.0, "ndvi": 0.2, "ndbi": 0.4, "ndwi": -0.1, "building_density": 0.8, "distance_to_water_m": 200.0, "distance_to_roads_m": 30.0, "distance_to_parks_m": 800.0, "elevation_m": 12.0, "slope_deg": 1.5, "aspect_deg": 90.0, "thermal_retention_class": "High Nocturnal Heat Retention", "confidence_class": "Very High", "hotspot_classification": "95% Confidence Hotspot", "sensor": "Landsat-8/9 & Sentinel-2", "capture_date": "2024-05-15", "scene_id": "LC09_L2SP_142051_20240515", "processing_version": "1.0.0"}, "geometry": {"type": "Point", "coordinates": [80.276, 13.086]}}, {"id": "7", "type": "Feature", "properties": {"point_id": 8, "latitude": 13.087, "longitude": 80.277, "utm_x_m": 421622.4159143993, "utm_y_m": 1446868.7338105664, "land_cover_code": 50, "is_urban": true, "is_rural": false, "is_water": false, "lst_day_celsius": 38.0, "lst_night_celsius": 28.0, "suhii_day_celsius": 8.0, "suhii_night_celsius": 6.0, "delta_lst_diurnal": 10.0, "heat_persistence_index": 0.73, "gi_zscore_day": 2.5, "gi_pvalue_day": 0.01, "gi_zscore_night": 2.8, "gi_pvalue_night": 0.005, "day_hotspot_significance": 95.0, "night_hotspot_significance": 99.0, "hotspot_id": "HOT_0001", "city_temperature_percentile": 90.0, "temperature_rank": 33, "temperature_total_pixels": 50, "hotspot_confidence_score": 85.0, "ndvi": 0.2, "ndbi": 0.4, "ndwi": -0.1, "building_density": 0.8, "distance_to_water_m": 200.0, "distance_to_roads_m": 30.0, "distance_to_parks_m": 800.0, "elevation_m": 12.0, "slope_deg": 1.5, "aspect_deg": 90.0, "thermal_retention_class": "High Nocturnal Heat Retention", "confidence_class": "Very High", "hotspot_classification": "95% Confidence Hotspot", "sensor": "Landsat-8/9 & Sentinel-2", "capture_date": "2024-05-15", "scene_id": "LC09_L2SP_142051_20240515", "processing_version": "1.0.0"}, "geometry": {"type": "Point", "coordinates": [80.277, 13.087]}}, {"id": "8", "type": "Feature", "properties": {"point_id": 9, "latitude": 13.088, "longitude": 80.27799999999999, "utm_x_m": 421731.14275693486, "utm_y_m": 1446979.0191619718, "land_cover_code": 50, "is_urban": true, "is_rural": false, "is_water": false, "lst_day_celsius": 38.0, "lst_night_celsius": 28.0, "suhii_day_celsius": 8.0, "suhii_night_celsius": 6.0, "delta_lst_diurnal": 10.0, "heat_persistence_index": 0.73, "gi_zscore_day": 2.5, "gi_pvalue_day": 0.01, "gi_zscore_night": 2.8, "gi_pvalue_night": 0.005, "day_hotspot_significance": 95.0, "night_hotspot_significance": 99.0, "hotspot_id": "HOT_0001", "city_temperature_percentile": 90.0, "temperature_rank": 32, "temperature_total_pixels": 50, "hotspot_confidence_score": 85.0, "ndvi": 0.2, "ndbi": 0.4, "ndwi": -0.1, "building_density": 0.8, "distance_to_water_m": 200.0, "distance_to_roads_m": 30.0, "distance_to_parks_m": 800.0, "elevation_m": 12.0, "slope_deg": 1.5, "aspect_deg": 90.0, "thermal_retention_class": "High Nocturnal Heat Retention", "confidence_class": "Very High", "hotspot_classification": "95% Confidence Hotspot", "sensor": "Landsat-8/9 & Sentinel-2", "capture_date": "2024-05-15", "scene_id": "LC09_L2SP_142051_20240515", "processing_version": "1.0.0"}, "geometry": {"type": "Point", "coordinates": [80.27799999999999, 13.088]}}, {"id": "9", "type": "Feature", "properties": {"point_id": 10, "latitude": 13.089, "longitude": 80.279, "utm_x_m": 421839.8687271795, "utm_y_m": 1447089.304906438, "land_cover_code": 50, "is_urban": true, "is_rural": false, "is_water": false, "lst_day_celsius": 38.0, "lst_night_celsius": 28.0, "suhii_day_celsius": 8.0, "suhii_night_celsius": 6.0, "delta_lst_diurnal": 10.0, "heat_persistence_index": 0.73, "gi_zscore_day": 2.5, "gi_pvalue_day": 0.01, "gi_zscore_night": 2.8, "gi_pvalue_night": 0.005, "day_hotspot_significance": 95.0, "night_hotspot_significance": 99.0, "hotspot_id": "HOT_0001", "city_temperature_percentile": 90.0, "temperature_rank": 31, "temperature_total_pixels": 50, "hotspot_confidence_score": 85.0, "ndvi": 0.2, "ndbi": 0.4, "ndwi": -0.1, "building_density": 0.8, "distance_to_water_m": 200.0, "distance_to_roads_m": 30.0, "distance_to_parks_m": 800.0, "elevation_m": 12.0, "slope_deg": 1.5, "aspect_deg": 90.0, "thermal_retention_class": "High Nocturnal Heat Retention", "confidence_class": "Very High", "hotspot_classification": "95% Confidence Hotspot", "sensor": "Landsat-8/9 & Sentinel-2", "capture_date": "2024-05-15", "scene_id": "LC09_L2SP_142051_20240515", "processing_version": "1.0.0"}, "geometry": {"type": "Point", "coordinates": [80.279, 13.089]}}, {"id": "10", "type": "Feature", "properties": {"point_id": 11, "latitude": 13.09, "longitude": 80.28, "utm_x_m": 421948.5938250671, "utm_y_m": 1447199.591044056, "land_cover_code": 50, "is_urban": true, "is_rural": false, "is_water": false, "lst_day_celsius": 38.0, "lst_night_celsius": 28.0, "suhii_day_celsius": 8.0, "suhii_night_celsius": 6.0, "delta_lst_diurnal": 10.0, "heat_persistence_index": 0.73, "gi_zscore_day": 2.5, "gi_pvalue_day": 0.01, "gi_zscore_night": 2.8, "gi_pvalue_night": 0.005, "day_hotspot_significance": 95.0, "night_hotspot_significance": 95.0, "hotspot_id": "HOT_0002", "city_temperature_percentile": 90.0, "temperature_rank": 30, "temperature_total_pixels": 50, "hotspot_confidence_score": 85.0, "ndvi": 0.2, "ndbi": 0.4, "ndwi": -0.1, "building_density": 0.8, "distance_to_water_m": 200.0, "distance_to_roads_m": 30.0, "distance_to_parks_m": 800.0, "elevation_m": 12.0, "slope_deg": 1.5, "aspect_deg": 90.0, "thermal_retention_class": "High Nocturnal Heat Retention", "confidence_class": "Very High", "hotspot_classification": "95% Confidence Hotspot", "sensor": "Landsat-8/9 & Sentinel-2", "capture_date": "2024-05-15", "scene_id": "LC09_L2SP_142051_20240515", "processing_version": "1.0.0"}, "geometry": {"type": "Point", "coordinates": [80.28, 13.09]}}, {"id": "11", "type": "Feature", "properties": {"point_id": 12, "latitude": 13.091, "longitude": 80.28099999999999, "utm_x_m": 422057.3180505262, "utm_y_m": 1447309.8775749193, "land_cover_code": 50, "is_urban": true, "is_rural": false, "is_water": false, "lst_day_celsius": 38.0, "lst_night_celsius": 28.0, "suhii_day_celsius": 8.0, "suhii_night_celsius": 6.0, "delta_lst_diurnal": 10.0, "heat_persistence_index": 0.73, "gi_zscore_day": 2.5, "gi_pvalue_day": 0.01, "gi_zscore_night": 2.8, "gi_pvalue_night": 0.005, "day_hotspot_significance": 95.0, "night_hotspot_significance": 95.0, "hotspot_id": "HOT_0002", "city_temperature_percentile": 90.0, "temperature_rank": 29, "temperature_total_pixels": 50, "hotspot_confidence_score": 85.0, "ndvi": 0.2, "ndbi": 0.4, "ndwi": -0.1, "building_density": 0.8, "distance_to_water_m": 200.0, "distance_to_roads_m": 30.0, "distance_to_parks_m": 800.0, "elevation_m": 12.0, "slope_deg": 1.5, "aspect_deg": 90.0, "thermal_retention_class": "High Nocturnal Heat Retention", "confidence_class": "Very High", "hotspot_classification": "95% Confidence Hotspot", "sensor": "Landsat-8/9 & Sentinel-2", "capture_date": "2024-05-15", "scene_id": "LC09_L2SP_142051_20240515", "processing_version": "1.0.0"}, "geometry": {"type": "Point", "coordinates": [80.28099999999999, 13.091]}}, {"id": "12", "type": "Feature", "properties": {"point_id": 13, "latitude": 13.092, "longitude": 80.282, "utm_x_m": 422166.0414034947, "utm_y_m": 1447420.16449912, "land_cover_code": 50, "is_urban": true, "is_rural": false, "is_water": false, "lst_day_celsius": 38.0, "lst_night_celsius": 28.0, "suhii_day_celsius": 8.0, "suhii_night_celsius": 6.0, "delta_lst_diurnal": 10.0, "heat_persistence_index": 0.73, "gi_zscore_day": 2.5, "gi_pvalue_day": 0.01, "gi_zscore_night": 2.8, "gi_pvalue_night": 0.005, "day_hotspot_significance": 95.0, "night_hotspot_significance": 95.0, "hotspot_id": "HOT_0002", "city_temperature_percentile": 90.0, "temperature_rank": 28, "temperature_total_pixels": 50, "hotspot_confidence_score": 85.0, "ndvi": 0.2, "ndbi": 0.4, "ndwi": -0.1, "building_density": 0.8, "distance_to_water_m": 200.0, "distance_to_roads_m": 30.0, "distance_to_parks_m": 800.0, "elevation_m": 12.0, "slope_deg": 1.5, "aspect_deg": 90.0, "thermal_retention_class": "High Nocturnal Heat Retention", "confidence_class": "Very High", "hotspot_classification": "95% Confidence Hotspot", "sensor": "Landsat-8/9 & Sentinel-2", "capture_date": "2024-05-15", "scene_id": "LC09_L2SP_142051_20240515", "processing_version": "1.0.0"}, "geometry": {"type": "Point", "coordinates": [80.282, 13.092]}}, {"id": "13", "type": "Feature", "properties": {"point_id": 14, "latitude": 13.093, "longitude": 80.283, "utm_x_m": 422274.7638839012, "utm_y_m": 1447530.4518167519, "land_cover_code": 50, "is_urban": true, "is_rural": false, "is_water": false, "lst_day_celsius": 38.0, "lst_night_celsius": 28.0, "suhii_day_celsius": 8.0, "suhii_night_celsius": 6.0, "delta_lst_diurnal": 10.0, "heat_persistence_index": 0.73, "gi_zscore_day": 2.5, "gi_pvalue_day": 0.01, "gi_zscore_night": 2.8, "gi_pvalue_night": 0.005, "day_hotspot_significance": 95.0, "night_hotspot_significance": 95.0, "hotspot_id": "HOT_0002", "city_temperature_percentile": 90.0, "temperature_rank": 27, "temperature_total_pixels": 50, "hotspot_confidence_score": 85.0, "ndvi": 0.2, "ndbi": 0.4, "ndwi": -0.1, "building_density": 0.8, "distance_to_water_m": 200.0, "distance_to_roads_m": 30.0, "distance_to_parks_m": 800.0, "elevation_m": 12.0, "slope_deg": 1.5, "aspect_deg": 90.0, "thermal_retention_class": "High Nocturnal Heat Retention", "confidence_class": "Very High", "hotspot_classification": "95% Confidence Hotspot", "sensor": "Landsat-8/9 & Sentinel-2", "capture_date": "2024-05-15", "scene_id": "LC09_L2SP_142051_20240515", "processing_version": "1.0.0"}, "geometry": {"type": "Point", "coordinates": [80.283, 13.093]}}, {"id": "14", "type": "Feature", "properties": {"point_id": 15, "latitude": 13.094, "longitude": 80.28399999999999, "utm_x_m": 422383.4854916795, "utm_y_m": 1447640.739527906, "land_cover_code": 50, "is_urban": true, "is_rural": false, "is_water": false, "lst_day_celsius": 38.0, "lst_night_celsius": 28.0, "suhii_day_celsius": 8.0, "suhii_night_celsius": 6.0, "delta_lst_diurnal": 10.0, "heat_persistence_index": 0.73, "gi_zscore_day": 2.5, "gi_pvalue_day": 0.01, "gi_zscore_night": 2.8, "gi_pvalue_night": 0.005, "day_hotspot_significance": 95.0, "night_hotspot_significance": 95.0, "hotspot_id": "HOT_0002", "city_temperature_percentile": 90.0, "temperature_rank": 26, "temperature_total_pixels": 50, "hotspot_confidence_score": 85.0, "ndvi": 0.2, "ndbi": 0.4, "ndwi": -0.1, "building_density": 0.8, "distance_to_water_m": 200.0, "distance_to_roads_m": 30.0, "distance_to_parks_m": 800.0, "elevation_m": 12.0, "slope_deg": 1.5, "aspect_deg": 90.0, "thermal_retention_class": "High Nocturnal Heat Retention", "confidence_class": "Very High", "hotspot_classification": "95% Confidence Hotspot", "sensor": "Landsat-8/9 & Sentinel-2", "capture_date": "2024-05-15", "scene_id": "LC09_L2SP_142051_20240515", "processing_version": "1.0.0"}, "geometry": {"type": "Point", "coordinates": [80.28399999999999, 13.094]}}, {"id": "15", "type": "Feature", "properties": {"point_id": 16, "latitude": 13.095, "longitude": 80.285, "utm_x_m": 422492.20622676215, "utm_y_m": 1447751.0276326763, "land_cover_code": 50, "is_urban": true, "is_rural": false, "is_water": false, "lst_day_celsius": 38.0, "lst_night_celsius": 28.0, "suhii_day_celsius": 8.0, "suhii_night_celsius": 6.0, "delta_lst_diurnal": 10.0, "heat_persistence_index": 0.73, "gi_zscore_day": 2.5, "gi_pvalue_day": 0.01, "gi_zscore_night": 2.8, "gi_pvalue_night": 0.005, "day_hotspot_significance": 95.0, "night_hotspot_significance": 95.0, "hotspot_id": "HOT_0002", "city_temperature_percentile": 90.0, "temperature_rank": 25, "temperature_total_pixels": 50, "hotspot_confidence_score": 85.0, "ndvi": 0.2, "ndbi": 0.4, "ndwi": -0.1, "building_density": 0.8, "distance_to_water_m": 200.0, "distance_to_roads_m": 30.0, "distance_to_parks_m": 800.0, "elevation_m": 12.0, "slope_deg": 1.5, "aspect_deg": 90.0, "thermal_retention_class": "High Nocturnal Heat Retention", "confidence_class": "Very High", "hotspot_classification": "95% Confidence Hotspot", "sensor": "Landsat-8/9 & Sentinel-2", "capture_date": "2024-05-15", "scene_id": "LC09_L2SP_142051_20240515", "processing_version": "1.0.0"}, "geometry": {"type": "Point", "coordinates": [80.285, 13.095]}}, {"id": "16", "type": "Feature", "properties": {"point_id": 17, "latitude": 13.096, "longitude": 80.286, "utm_x_m": 422600.92608908314, "utm_y_m": 1447861.3161311543, "land_cover_code": 50, "is_urban": true, "is_rural": false, "is_water": false, "lst_day_celsius": 38.0, "lst_night_celsius": 28.0, "suhii_day_celsius": 8.0, "suhii_night_celsius": 6.0, "delta_lst_diurnal": 10.0, "heat_persistence_index": 0.73, "gi_zscore_day": 2.5, "gi_pvalue_day": 0.01, "gi_zscore_night": 2.8, "gi_pvalue_night": 0.005, "day_hotspot_significance": 95.0, "night_hotspot_significance": 95.0, "hotspot_id": "HOT_0002", "city_temperature_percentile": 90.0, "temperature_rank": 24, "temperature_total_pixels": 50, "hotspot_confidence_score": 85.0, "ndvi": 0.2, "ndbi": 0.4, "ndwi": -0.1, "building_density": 0.8, "distance_to_water_m": 200.0, "distance_to_roads_m": 30.0, "distance_to_parks_m": 800.0, "elevation_m": 12.0, "slope_deg": 1.5, "aspect_deg": 90.0, "thermal_retention_class": "High Nocturnal Heat Retention", "confidence_class": "Very High", "hotspot_classification": "95% Confidence Hotspot", "sensor": "Landsat-8/9 & Sentinel-2", "capture_date": "2024-05-15", "scene_id": "LC09_L2SP_142051_20240515", "processing_version": "1.0.0"}, "geometry": {"type": "Point", "coordinates": [80.286, 13.096]}}, {"id": "17", "type": "Feature", "properties": {"point_id": 18, "latitude": 13.097, "longitude": 80.28699999999999, "utm_x_m": 422709.6450785708, "utm_y_m": 1447971.6050234328, "land_cover_code": 50, "is_urban": true, "is_rural": false, "is_water": false, "lst_day_celsius": 38.0, "lst_night_celsius": 28.0, "suhii_day_celsius": 8.0, "suhii_night_celsius": 6.0, "delta_lst_diurnal": 10.0, "heat_persistence_index": 0.73, "gi_zscore_day": 2.5, "gi_pvalue_day": 0.01, "gi_zscore_night": 2.8, "gi_pvalue_night": 0.005, "day_hotspot_significance": 95.0, "night_hotspot_significance": 95.0, "hotspot_id": "HOT_0002", "city_temperature_percentile": 90.0, "temperature_rank": 23, "temperature_total_pixels": 50, "hotspot_confidence_score": 85.0, "ndvi": 0.2, "ndbi": 0.4, "ndwi": -0.1, "building_density": 0.8, "distance_to_water_m": 200.0, "distance_to_roads_m": 30.0, "distance_to_parks_m": 800.0, "elevation_m": 12.0, "slope_deg": 1.5, "aspect_deg": 90.0, "thermal_retention_class": "High Nocturnal Heat Retention", "confidence_class": "Very High", "hotspot_classification": "95% Confidence Hotspot", "sensor": "Landsat-8/9 & Sentinel-2", "capture_date": "2024-05-15", "scene_id": "LC09_L2SP_142051_20240515", "processing_version": "1.0.0"}, "geometry": {"type": "Point", "coordinates": [80.28699999999999, 13.097]}}, {"id": "18", "type": "Feature", "properties": {"point_id": 19, "latitude": 13.098, "longitude": 80.288, "utm_x_m": 422818.36319516326, "utm_y_m": 1448081.8943096055, "land_cover_code": 50, "is_urban": true, "is_rural": false, "is_water": false, "lst_day_celsius": 38.0, "lst_night_celsius": 28.0, "suhii_day_celsius": 8.0, "suhii_night_celsius": 6.0, "delta_lst_diurnal": 10.0, "heat_persistence_index": 0.73, "gi_zscore_day": 2.5, "gi_pvalue_day": 0.01, "gi_zscore_night": 2.8, "gi_pvalue_night": 0.005, "day_hotspot_significance": 95.0, "night_hotspot_significance": 95.0, "hotspot_id": "HOT_0002", "city_temperature_percentile": 90.0, "temperature_rank": 22, "temperature_total_pixels": 50, "hotspot_confidence_score": 85.0, "ndvi": 0.2, "ndbi": 0.4, "ndwi": -0.1, "building_density": 0.8, "distance_to_water_m": 200.0, "distance_to_roads_m": 30.0, "distance_to_parks_m": 800.0, "elevation_m": 12.0, "slope_deg": 1.5, "aspect_deg": 90.0, "thermal_retention_class": "High Nocturnal Heat Retention", "confidence_class": "Very High", "hotspot_classification": "95% Confidence Hotspot", "sensor": "Landsat-8/9 & Sentinel-2", "capture_date": "2024-05-15", "scene_id": "LC09_L2SP_142051_20240515", "processing_version": "1.0.0"}, "geometry": {"type": "Point", "coordinates": [80.288, 13.098]}}, {"id": "19", "type": "Feature", "properties": {"point_id": 20, "latitude": 13.099, "longitude": 80.289, "utm_x_m": 422927.0804387902, "utm_y_m": 1448192.1839897637, "land_cover_code": 50, "is_urban": true, "is_rural": false, "is_water": false, "lst_day_celsius": 38.0, "lst_night_celsius": 28.0, "suhii_day_celsius": 8.0, "suhii_night_celsius": 6.0, "delta_lst_diurnal": 10.0, "heat_persistence_index": 0.73, "gi_zscore_day": 2.5, "gi_pvalue_day": 0.01, "gi_zscore_night": 2.8, "gi_pvalue_night": 0.005, "day_hotspot_significance": 95.0, "night_hotspot_significance": 95.0, "hotspot_id": "HOT_0002", "city_temperature_percentile": 90.0, "temperature_rank": 21, "temperature_total_pixels": 50, "hotspot_confidence_score": 85.0, "ndvi": 0.2, "ndbi": 0.4, "ndwi": -0.1, "building_density": 0.8, "distance_to_water_m": 200.0, "distance_to_roads_m": 30.0, "distance_to_parks_m": 800.0, "elevation_m": 12.0, "slope_deg": 1.5, "aspect_deg": 90.0, "thermal_retention_class": "High Nocturnal Heat Retention", "confidence_class": "Very High", "hotspot_classification": "95% Confidence Hotspot", "sensor": "Landsat-8/9 & Sentinel-2", "capture_date": "2024-05-15", "scene_id": "LC09_L2SP_142051_20240515", "processing_version": "1.0.0"}, "geometry": {"type": "Point", "coordinates": [80.289, 13.099]}}, {"id": "20", "type": "Feature", "properties": {"point_id": 21, "latitude": 13.1, "longitude": 80.28999999999999, "utm_x_m": 423035.79680938146, "utm_y_m": 1448302.474064, "land_cover_code": 50, "is_urban": true, "is_rural": false, "is_water": false, "lst_day_celsius": 38.0, "lst_night_celsius": 28.0, "suhii_day_celsius": 8.0, "suhii_night_celsius": 6.0, "delta_lst_diurnal": 10.0, "heat_persistence_index": 0.73, "gi_zscore_day": 2.5, "gi_pvalue_day": 0.01, "gi_zscore_night": 2.8, "gi_pvalue_night": 0.005, "day_hotspot_significance": 95.0, "night_hotspot_significance": 95.0, "hotspot_id": "HOT_0003", "city_temperature_percentile": 90.0, "temperature_rank": 20, "temperature_total_pixels": 50, "hotspot_confidence_score": 85.0, "ndvi": 0.2, "ndbi": 0.4, "ndwi": -0.1, "building_density": 0.8, "distance_to_water_m": 200.0, "distance_to_roads_m": 30.0, "distance_to_parks_m": 800.0, "elevation_m": 12.0, "slope_deg": 1.5, "aspect_deg": 90.0, "thermal_retention_class": "High Nocturnal Heat Retention", "confidence_class": "Very High", "hotspot_classification": "95% Confidence Hotspot", "sensor": "Landsat-8/9 & Sentinel-2", "capture_date": "2024-05-15", "scene_id": "LC09_L2SP_142051_20240515", "processing_version": "1.0.0"}, "geometry": {"type": "Point", "coordinates": [80.28999999999999, 13.1]}}, {"id": "21", "type": "Feature", "properties": {"point_id": 22, "latitude": 13.101, "longitude": 80.291, "utm_x_m": 423144.51230687514, "utm_y_m": 1448412.7645324082, "land_cover_code": 50, "is_urban": true, "is_rural": false, "is_water": false, "lst_day_celsius": 38.0, "lst_night_celsius": 28.0, "suhii_day_celsius": 8.0, "suhii_night_celsius": 6.0, "delta_lst_diurnal": 10.0, "heat_persistence_index": 0.73, "gi_zscore_day": 2.5, "gi_pvalue_day": 0.01, "gi_zscore_night": 2.8, "gi_pvalue_night": 0.005, "day_hotspot_significance": 95.0, "night_hotspot_significance": 95.0, "hotspot_id": "HOT_0003", "city_temperature_percentile": 90.0, "temperature_rank": 19, "temperature_total_pixels": 50, "hotspot_confidence_score": 85.0, "ndvi": 0.2, "ndbi": 0.4, "ndwi": -0.1, "building_density": 0.8, "distance_to_water_m": 200.0, "distance_to_roads_m": 30.0, "distance_to_parks_m": 800.0, "elevation_m": 12.0, "slope_deg": 1.5, "aspect_deg": 90.0, "thermal_retention_class": "High Nocturnal Heat Retention", "confidence_class": "Very High", "hotspot_classification": "95% Confidence Hotspot", "sensor": "Landsat-8/9 & Sentinel-2", "capture_date": "2024-05-15", "scene_id": "LC09_L2SP_142051_20240515", "processing_version": "1.0.0"}, "geometry": {"type": "Point", "coordinates": [80.291, 13.101]}}, {"id": "22", "type": "Feature", "properties": {"point_id": 23, "latitude": 13.102, "longitude": 80.292, "utm_x_m": 423253.22693119955, "utm_y_m": 1448523.0553950795, "land_cover_code": 50, "is_urban": true, "is_rural": false, "is_water": false, "lst_day_celsius": 38.0, "lst_night_celsius": 28.0, "suhii_day_celsius": 8.0, "suhii_night_celsius": 6.0, "delta_lst_diurnal": 10.0, "heat_persistence_index": 0.73, "gi_zscore_day": 2.5, "gi_pvalue_day": 0.01, "gi_zscore_night": 2.8, "gi_pvalue_night": 0.005, "day_hotspot_significance": 95.0, "night_hotspot_significance": 95.0, "hotspot_id": "HOT_0003", "city_temperature_percentile": 90.0, "temperature_rank": 18, "temperature_total_pixels": 50, "hotspot_confidence_score": 85.0, "ndvi": 0.2, "ndbi": 0.4, "ndwi": -0.1, "building_density": 0.8, "distance_to_water_m": 200.0, "distance_to_roads_m": 30.0, "distance_to_parks_m": 800.0, "elevation_m": 12.0, "slope_deg": 1.5, "aspect_deg": 90.0, "thermal_retention_class": "High Nocturnal Heat Retention", "confidence_class": "Very High", "hotspot_classification": "95% Confidence Hotspot", "sensor": "Landsat-8/9 & Sentinel-2", "capture_date": "2024-05-15", "scene_id": "LC09_L2SP_142051_20240515", "processing_version": "1.0.0"}, "geometry": {"type": "Point", "coordinates": [80.292, 13.102]}}, {"id": "23", "type": "Feature", "properties": {"point_id": 24, "latitude": 13.103, "longitude": 80.29299999999999, "utm_x_m": 423361.94068228855, "utm_y_m": 1448633.3466521073, "land_cover_code": 50, "is_urban": true, "is_rural": false, "is_water": false, "lst_day_celsius": 38.0, "lst_night_celsius": 28.0, "suhii_day_celsius": 8.0, "suhii_night_celsius": 6.0, "delta_lst_diurnal": 10.0, "heat_persistence_index": 0.73, "gi_zscore_day": 2.5, "gi_pvalue_day": 0.01, "gi_zscore_night": 2.8, "gi_pvalue_night": 0.005, "day_hotspot_significance": 95.0, "night_hotspot_significance": 95.0, "hotspot_id": "HOT_0003", "city_temperature_percentile": 90.0, "temperature_rank": 17, "temperature_total_pixels": 50, "hotspot_confidence_score": 85.0, "ndvi": 0.2, "ndbi": 0.4, "ndwi": -0.1, "building_density": 0.8, "distance_to_water_m": 200.0, "distance_to_roads_m": 30.0, "distance_to_parks_m": 800.0, "elevation_m": 12.0, "slope_deg": 1.5, "aspect_deg": 90.0, "thermal_retention_class": "High Nocturnal Heat Retention", "confidence_class": "Very High", "hotspot_classification": "95% Confidence Hotspot", "sensor": "Landsat-8/9 & Sentinel-2", "capture_date": "2024-05-15", "scene_id": "LC09_L2SP_142051_20240515", "processing_version": "1.0.0"}, "geometry": {"type": "Point", "coordinates": [80.29299999999999, 13.103]}}, {"id": "24", "type": "Feature", "properties": {"point_id": 25, "latitude": 13.104, "longitude": 80.294, "utm_x_m": 423470.6535600748, "utm_y_m": 1448743.6383035842, "land_cover_code": 50, "is_urban": true, "is_rural": false, "is_water": false, "lst_day_celsius": 38.0, "lst_night_celsius": 28.0, "suhii_day_celsius": 8.0, "suhii_night_celsius": 6.0, "delta_lst_diurnal": 10.0, "heat_persistence_index": 0.73, "gi_zscore_day": 2.5, "gi_pvalue_day": 0.01, "gi_zscore_night": 2.8, "gi_pvalue_night": 0.005, "day_hotspot_significance": 95.0, "night_hotspot_significance": 95.0, "hotspot_id": "HOT_0003", "city_temperature_percentile": 90.0, "temperature_rank": 16, "temperature_total_pixels": 50, "hotspot_confidence_score": 85.0, "ndvi": 0.2, "ndbi": 0.4, "ndwi": -0.1, "building_density": 0.8, "distance_to_water_m": 200.0, "distance_to_roads_m": 30.0, "distance_to_parks_m": 800.0, "elevation_m": 12.0, "slope_deg": 1.5, "aspect_deg": 90.0, "thermal_retention_class": "High Nocturnal Heat Retention", "confidence_class": "Very High", "hotspot_classification": "95% Confidence Hotspot", "sensor": "Landsat-8/9 & Sentinel-2", "capture_date": "2024-05-15", "scene_id": "LC09_L2SP_142051_20240515", "processing_version": "1.0.0"}, "geometry": {"type": "Point", "coordinates": [80.294, 13.104]}}, {"id": "25", "type": "Feature", "properties": {"point_id": 26, "latitude": 13.105, "longitude": 80.295, "utm_x_m": 423579.3655644922, "utm_y_m": 1448853.9303496024, "land_cover_code": 50, "is_urban": true, "is_rural": false, "is_water": false, "lst_day_celsius": 38.0, "lst_night_celsius": 28.0, "suhii_day_celsius": 8.0, "suhii_night_celsius": 6.0, "delta_lst_diurnal": 10.0, "heat_persistence_index": 0.73, "gi_zscore_day": 2.5, "gi_pvalue_day": 0.01, "gi_zscore_night": 2.8, "gi_pvalue_night": 0.005, "day_hotspot_significance": 95.0, "night_hotspot_significance": 95.0, "hotspot_id": "HOT_0003", "city_temperature_percentile": 90.0, "temperature_rank": 15, "temperature_total_pixels": 50, "hotspot_confidence_score": 85.0, "ndvi": 0.2, "ndbi": 0.4, "ndwi": -0.1, "building_density": 0.8, "distance_to_water_m": 200.0, "distance_to_roads_m": 30.0, "distance_to_parks_m": 800.0, "elevation_m": 12.0, "slope_deg": 1.5, "aspect_deg": 90.0, "thermal_retention_class": "High Nocturnal Heat Retention", "confidence_class": "Very High", "hotspot_classification": "95% Confidence Hotspot", "sensor": "Landsat-8/9 & Sentinel-2", "capture_date": "2024-05-15", "scene_id": "LC09_L2SP_142051_20240515", "processing_version": "1.0.0"}, "geometry": {"type": "Point", "coordinates": [80.295, 13.105]}}, {"id": "26", "type": "Feature", "properties": {"point_id": 27, "latitude": 13.106, "longitude": 80.29599999999999, "utm_x_m": 423688.076695469, "utm_y_m": 1448964.2227902545, "land_cover_code": 50, "is_urban": true, "is_rural": false, "is_water": false, "lst_day_celsius": 38.0, "lst_night_celsius": 28.0, "suhii_day_celsius": 8.0, "suhii_night_celsius": 6.0, "delta_lst_diurnal": 10.0, "heat_persistence_index": 0.73, "gi_zscore_day": 2.5, "gi_pvalue_day": 0.01, "gi_zscore_night": 2.8, "gi_pvalue_night": 0.005, "day_hotspot_significance": 95.0, "night_hotspot_significance": 95.0, "hotspot_id": "HOT_0003", "city_temperature_percentile": 90.0, "temperature_rank": 14, "temperature_total_pixels": 50, "hotspot_confidence_score": 85.0, "ndvi": 0.2, "ndbi": 0.4, "ndwi": -0.1, "building_density": 0.8, "distance_to_water_m": 200.0, "distance_to_roads_m": 30.0, "distance_to_parks_m": 800.0, "elevation_m": 12.0, "slope_deg": 1.5, "aspect_deg": 90.0, "thermal_retention_class": "High Nocturnal Heat Retention", "confidence_class": "Very High", "hotspot_classification": "95% Confidence Hotspot", "sensor": "Landsat-8/9 & Sentinel-2", "capture_date": "2024-05-15", "scene_id": "LC09_L2SP_142051_20240515", "processing_version": "1.0.0"}, "geometry": {"type": "Point", "coordinates": [80.29599999999999, 13.106]}}, {"id": "27", "type": "Feature", "properties": {"point_id": 28, "latitude": 13.107, "longitude": 80.297, "utm_x_m": 423796.7869529433, "utm_y_m": 1449074.5156256333, "land_cover_code": 50, "is_urban": true, "is_rural": false, "is_water": false, "lst_day_celsius": 38.0, "lst_night_celsius": 28.0, "suhii_day_celsius": 8.0, "suhii_night_celsius": 6.0, "delta_lst_diurnal": 10.0, "heat_persistence_index": 0.73, "gi_zscore_day": 2.5, "gi_pvalue_day": 0.01, "gi_zscore_night": 2.8, "gi_pvalue_night": 0.005, "day_hotspot_significance": 95.0, "night_hotspot_significance": 95.0, "hotspot_id": "HOT_0003", "city_temperature_percentile": 90.0, "temperature_rank": 13, "temperature_total_pixels": 50, "hotspot_confidence_score": 85.0, "ndvi": 0.2, "ndbi": 0.4, "ndwi": -0.1, "building_density": 0.8, "distance_to_water_m": 200.0, "distance_to_roads_m": 30.0, "distance_to_parks_m": 800.0, "elevation_m": 12.0, "slope_deg": 1.5, "aspect_deg": 90.0, "thermal_retention_class": "High Nocturnal Heat Retention", "confidence_class": "Very High", "hotspot_classification": "95% Confidence Hotspot", "sensor": "Landsat-8/9 & Sentinel-2", "capture_date": "2024-05-15", "scene_id": "LC09_L2SP_142051_20240515", "processing_version": "1.0.0"}, "geometry": {"type": "Point", "coordinates": [80.297, 13.107]}}, {"id": "28", "type": "Feature", "properties": {"point_id": 29, "latitude": 13.108, "longitude": 80.298, "utm_x_m": 423905.4963368436, "utm_y_m": 1449184.8088558316, "land_cover_code": 50, "is_urban": true, "is_rural": false, "is_water": false, "lst_day_celsius": 38.0, "lst_night_celsius": 28.0, "suhii_day_celsius": 8.0, "suhii_night_celsius": 6.0, "delta_lst_diurnal": 10.0, "heat_persistence_index": 0.73, "gi_zscore_day": 2.5, "gi_pvalue_day": 0.01, "gi_zscore_night": 2.8, "gi_pvalue_night": 0.005, "day_hotspot_significance": 95.0, "night_hotspot_significance": 95.0, "hotspot_id": "HOT_0003", "city_temperature_percentile": 90.0, "temperature_rank": 12, "temperature_total_pixels": 50, "hotspot_confidence_score": 85.0, "ndvi": 0.2, "ndbi": 0.4, "ndwi": -0.1, "building_density": 0.8, "distance_to_water_m": 200.0, "distance_to_roads_m": 30.0, "distance_to_parks_m": 800.0, "elevation_m": 12.0, "slope_deg": 1.5, "aspect_deg": 90.0, "thermal_retention_class": "High Nocturnal Heat Retention", "confidence_class": "Very High", "hotspot_classification": "95% Confidence Hotspot", "sensor": "Landsat-8/9 & Sentinel-2", "capture_date": "2024-05-15", "scene_id": "LC09_L2SP_142051_20240515", "processing_version": "1.0.0"}, "geometry": {"type": "Point", "coordinates": [80.298, 13.108]}}, {"id": "29", "type": "Feature", "properties": {"point_id": 30, "latitude": 13.109, "longitude": 80.29899999999999, "utm_x_m": 424014.20484710357, "utm_y_m": 1449295.1024809408, "land_cover_code": 50, "is_urban": true, "is_rural": false, "is_water": false, "lst_day_celsius": 38.0, "lst_night_celsius": 28.0, "suhii_day_celsius": 8.0, "suhii_night_celsius": 6.0, "delta_lst_diurnal": 10.0, "heat_persistence_index": 0.73, "gi_zscore_day": 2.5, "gi_pvalue_day": 0.01, "gi_zscore_night": 2.8, "gi_pvalue_night": 0.005, "day_hotspot_significance": 95.0, "night_hotspot_significance": 95.0, "hotspot_id": "HOT_0003", "city_temperature_percentile": 90.0, "temperature_rank": 11, "temperature_total_pixels": 50, "hotspot_confidence_score": 85.0, "ndvi": 0.2, "ndbi": 0.4, "ndwi": -0.1, "building_density": 0.8, "distance_to_water_m": 200.0, "distance_to_roads_m": 30.0, "distance_to_parks_m": 800.0, "elevation_m": 12.0, "slope_deg": 1.5, "aspect_deg": 90.0, "thermal_retention_class": "High Nocturnal Heat Retention", "confidence_class": "Very High", "hotspot_classification": "95% Confidence Hotspot", "sensor": "Landsat-8/9 & Sentinel-2", "capture_date": "2024-05-15", "scene_id": "LC09_L2SP_142051_20240515", "processing_version": "1.0.0"}, "geometry": {"type": "Point", "coordinates": [80.29899999999999, 13.109]}}, {"id": "30", "type": "Feature", "properties": {"point_id": 31, "latitude": 13.11, "longitude": 80.3, "utm_x_m": 424122.91248365596, "utm_y_m": 1449405.396501055, "land_cover_code": 10, "is_urban": false, "is_rural": true, "is_water": false, "lst_day_celsius": 30.0, "lst_night_celsius": 22.0, "suhii_day_celsius": 0.0, "suhii_night_celsius": 0.0, "delta_lst_diurnal": 8.0, "heat_persistence_index": 0.55, "gi_zscore_day": -0.5, "gi_pvalue_day": 0.6, "gi_zscore_night": -0.4, "gi_pvalue_night": 0.65, "day_hotspot_significance": null, "night_hotspot_significance": null, "hotspot_id": null, "city_temperature_percentile": 20.0, "temperature_rank": 10, "temperature_total_pixels": 50, "hotspot_confidence_score": null, "ndvi": 0.6, "ndbi": -0.1, "ndwi": -0.1, "building_density": 0.1, "distance_to_water_m": 200.0, "distance_to_roads_m": 30.0, "distance_to_parks_m": 800.0, "elevation_m": 12.0, "slope_deg": 1.5, "aspect_deg": 90.0, "thermal_retention_class": "Moderate Retention", "confidence_class": null, "hotspot_classification": "Not Significant / Noise", "sensor": "Landsat-8/9 & Sentinel-2", "capture_date": "2024-05-15", "scene_id": "LC09_L2SP_142051_20240515", "processing_version": "1.0.0"}, "geometry": {"type": "Point", "coordinates": [80.3, 13.11]}}, {"id": "31", "type": "Feature", "properties": {"point_id": 32, "latitude": 13.111, "longitude": 80.301, "utm_x_m": 424231.61924643454, "utm_y_m": 1449515.6909162656, "land_cover_code": 10, "is_urban": false, "is_rural": true, "is_water": false, "lst_day_celsius": 30.0, "lst_night_celsius": 22.0, "suhii_day_celsius": 0.0, "suhii_night_celsius": 0.0, "delta_lst_diurnal": 8.0, "heat_persistence_index": 0.55, "gi_zscore_day": -0.5, "gi_pvalue_day": 0.6, "gi_zscore_night": -0.4, "gi_pvalue_night": 0.65, "day_hotspot_significance": null, "night_hotspot_significance": null, "hotspot_id": null, "city_temperature_percentile": 20.0, "temperature_rank": 10, "temperature_total_pixels": 50, "hotspot_confidence_score": null, "ndvi": 0.6, "ndbi": -0.1, "ndwi": -0.1, "building_density": 0.1, "distance_to_water_m": 200.0, "distance_to_roads_m": 30.0, "distance_to_parks_m": 800.0, "elevation_m": 12.0, "slope_deg": 1.5, "aspect_deg": 90.0, "thermal_retention_class": "Moderate Retention", "confidence_class": null, "hotspot_classification": "Not Significant / Noise", "sensor": "Landsat-8/9 & Sentinel-2", "capture_date": "2024-05-15", "scene_id": "LC09_L2SP_142051_20240515", "processing_version": "1.0.0"}, "geometry": {"type": "Point", "coordinates": [80.301, 13.111]}}, {"id": "32", "type": "Feature", "properties": {"point_id": 33, "latitude": 13.112, "longitude": 80.30199999999999, "utm_x_m": 424340.3251353691, "utm_y_m": 1449625.985726666, "land_cover_code": 10, "is_urban": false, "is_rural": true, "is_water": false, "lst_day_celsius": 30.0, "lst_night_celsius": 22.0, "suhii_day_celsius": 0.0, "suhii_night_celsius": 0.0, "delta_lst_diurnal": 8.0, "heat_persistence_index": 0.55, "gi_zscore_day": -0.5, "gi_pvalue_day": 0.6, "gi_zscore_night": -0.4, "gi_pvalue_night": 0.65, "day_hotspot_significance": null, "night_hotspot_significance": null, "hotspot_id": null, "city_temperature_percentile": 20.0, "temperature_rank": 10, "temperature_total_pixels": 50, "hotspot_confidence_score": null, "ndvi": 0.6, "ndbi": -0.1, "ndwi": -0.1, "building_density": 0.1, "distance_to_water_m": 200.0, "distance_to_roads_m": 30.0, "distance_to_parks_m": 800.0, "elevation_m": 12.0, "slope_deg": 1.5, "aspect_deg": 90.0, "thermal_retention_class": "Moderate Retention", "confidence_class": null, "hotspot_classification": "Not Significant / Noise", "sensor": "Landsat-8/9 & Sentinel-2", "capture_date": "2024-05-15", "scene_id": "LC09_L2SP_142051_20240515", "processing_version": "1.0.0"}, "geometry": {"type": "Point", "coordinates": [80.30199999999999, 13.112]}}, {"id": "33", "type": "Feature", "properties": {"point_id": 34, "latitude": 13.113, "longitude": 80.303, "utm_x_m": 424449.0301503935, "utm_y_m": 1449736.2809323478, "land_cover_code": 10, "is_urban": false, "is_rural": true, "is_water": false, "lst_day_celsius": 30.0, "lst_night_celsius": 22.0, "suhii_day_celsius": 0.0, "suhii_night_celsius": 0.0, "delta_lst_diurnal": 8.0, "heat_persistence_index": 0.55, "gi_zscore_day": -0.5, "gi_pvalue_day": 0.6, "gi_zscore_night": -0.4, "gi_pvalue_night": 0.65, "day_hotspot_significance": null, "night_hotspot_significance": null, "hotspot_id": null, "city_temperature_percentile": 20.0, "temperature_rank": 10, "temperature_total_pixels": 50, "hotspot_confidence_score": null, "ndvi": 0.6, "ndbi": -0.1, "ndwi": -0.1, "building_density": 0.1, "distance_to_water_m": 200.0, "distance_to_roads_m": 30.0, "distance_to_parks_m": 800.0, "elevation_m": 12.0, "slope_deg": 1.5, "aspect_deg": 90.0, "thermal_retention_class": "Moderate Retention", "confidence_class": null, "hotspot_classification": "Not Significant / Noise", "sensor": "Landsat-8/9 & Sentinel-2", "capture_date": "2024-05-15", "scene_id": "LC09_L2SP_142051_20240515", "processing_version": "1.0.0"}, "geometry": {"type": "Point", "coordinates": [80.303, 13.113]}}, {"id": "34", "type": "Feature", "properties": {"point_id": 35, "latitude": 13.114, "longitude": 80.304, "utm_x_m": 424557.7342914416, "utm_y_m": 1449846.5765334049, "land_cover_code": 10, "is_urban": false, "is_rural": true, "is_water": false, "lst_day_celsius": 30.0, "lst_night_celsius": 22.0, "suhii_day_celsius": 0.0, "suhii_night_celsius": 0.0, "delta_lst_diurnal": 8.0, "heat_persistence_index": 0.55, "gi_zscore_day": -0.5, "gi_pvalue_day": 0.6, "gi_zscore_night": -0.4, "gi_pvalue_night": 0.65, "day_hotspot_significance": null, "night_hotspot_significance": null, "hotspot_id": null, "city_temperature_percentile": 20.0, "temperature_rank": 10, "temperature_total_pixels": 50, "hotspot_confidence_score": null, "ndvi": 0.6, "ndbi": -0.1, "ndwi": -0.1, "building_density": 0.1, "distance_to_water_m": 200.0, "distance_to_roads_m": 30.0, "distance_to_parks_m": 800.0, "elevation_m": 12.0, "slope_deg": 1.5, "aspect_deg": 90.0, "thermal_retention_class": "Moderate Retention", "confidence_class": null, "hotspot_classification": "Not Significant / Noise", "sensor": "Landsat-8/9 & Sentinel-2", "capture_date": "2024-05-15", "scene_id": "LC09_L2SP_142051_20240515", "processing_version": "1.0.0"}, "geometry": {"type": "Point", "coordinates": [80.304, 13.114]}}, {"id": "35", "type": "Feature", "properties": {"point_id": 36, "latitude": 13.115, "longitude": 80.30499999999999, "utm_x_m": 424666.4375584419, "utm_y_m": 1449956.8725299283, "land_cover_code": 10, "is_urban": false, "is_rural": true, "is_water": false, "lst_day_celsius": 30.0, "lst_night_celsius": 22.0, "suhii_day_celsius": 0.0, "suhii_night_celsius": 0.0, "delta_lst_diurnal": 8.0, "heat_persistence_index": 0.55, "gi_zscore_day": -0.5, "gi_pvalue_day": 0.6, "gi_zscore_night": -0.4, "gi_pvalue_night": 0.65, "day_hotspot_significance": null, "night_hotspot_significance": null, "hotspot_id": null, "city_temperature_percentile": 20.0, "temperature_rank": 10, "temperature_total_pixels": 50, "hotspot_confidence_score": null, "ndvi": 0.6, "ndbi": -0.1, "ndwi": -0.1, "building_density": 0.1, "distance_to_water_m": 200.0, "distance_to_roads_m": 30.0, "distance_to_parks_m": 800.0, "elevation_m": 12.0, "slope_deg": 1.5, "aspect_deg": 90.0, "thermal_retention_class": "Moderate Retention", "confidence_class": null, "hotspot_classification": "Not Significant / Noise", "sensor": "Landsat-8/9 & Sentinel-2", "capture_date": "2024-05-15", "scene_id": "LC09_L2SP_142051_20240515", "processing_version": "1.0.0"}, "geometry": {"type": "Point", "coordinates": [80.30499999999999, 13.115]}}, {"id": "36", "type": "Feature", "properties": {"point_id": 37, "latitude": 13.116, "longitude": 80.306, "utm_x_m": 424775.13995133224, "utm_y_m": 1450067.1689220117, "land_cover_code": 10, "is_urban": false, "is_rural": true, "is_water": false, "lst_day_celsius": 30.0, "lst_night_celsius": 22.0, "suhii_day_celsius": 0.0, "suhii_night_celsius": 0.0, "delta_lst_diurnal": 8.0, "heat_persistence_index": 0.55, "gi_zscore_day": -0.5, "gi_pvalue_day": 0.6, "gi_zscore_night": -0.4, "gi_pvalue_night": 0.65, "day_hotspot_significance": null, "night_hotspot_significance": null, "hotspot_id": null, "city_temperature_percentile": 20.0, "temperature_rank": 10, "temperature_total_pixels": 50, "hotspot_confidence_score": null, "ndvi": 0.6, "ndbi": -0.1, "ndwi": -0.1, "building_density": 0.1, "distance_to_water_m": 200.0, "distance_to_roads_m": 30.0, "distance_to_parks_m": 800.0, "elevation_m": 12.0, "slope_deg": 1.5, "aspect_deg": 90.0, "thermal_retention_class": "Moderate Retention", "confidence_class": null, "hotspot_classification": "Not Significant / Noise", "sensor": "Landsat-8/9 & Sentinel-2", "capture_date": "2024-05-15", "scene_id": "LC09_L2SP_142051_20240515", "processing_version": "1.0.0"}, "geometry": {"type": "Point", "coordinates": [80.306, 13.116]}}, {"id": "37", "type": "Feature", "properties": {"point_id": 38, "latitude": 13.117, "longitude": 80.307, "utm_x_m": 424883.84147004114, "utm_y_m": 1450177.4657097475, "land_cover_code": 10, "is_urban": false, "is_rural": true, "is_water": false, "lst_day_celsius": 30.0, "lst_night_celsius": 22.0, "suhii_day_celsius": 0.0, "suhii_night_celsius": 0.0, "delta_lst_diurnal": 8.0, "heat_persistence_index": 0.55, "gi_zscore_day": -0.5, "gi_pvalue_day": 0.6, "gi_zscore_night": -0.4, "gi_pvalue_night": 0.65, "day_hotspot_significance": null, "night_hotspot_significance": null, "hotspot_id": null, "city_temperature_percentile": 20.0, "temperature_rank": 10, "temperature_total_pixels": 50, "hotspot_confidence_score": null, "ndvi": 0.6, "ndbi": -0.1, "ndwi": -0.1, "building_density": 0.1, "distance_to_water_m": 200.0, "distance_to_roads_m": 30.0, "distance_to_parks_m": 800.0, "elevation_m": 12.0, "slope_deg": 1.5, "aspect_deg": 90.0, "thermal_retention_class": "Moderate Retention", "confidence_class": null, "hotspot_classification": "Not Significant / Noise", "sensor": "Landsat-8/9 & Sentinel-2", "capture_date": "2024-05-15", "scene_id": "LC09_L2SP_142051_20240515", "processing_version": "1.0.0"}, "geometry": {"type": "Point", "coordinates": [80.307, 13.117]}}, {"id": "38", "type": "Feature", "properties": {"point_id": 39, "latitude": 13.118, "longitude": 80.30799999999999, "utm_x_m": 424992.5421145024, "utm_y_m": 1450287.7628932276, "land_cover_code": 10, "is_urban": false, "is_rural": true, "is_water": false, "lst_day_celsius": 30.0, "lst_night_celsius": 22.0, "suhii_day_celsius": 0.0, "suhii_night_celsius": 0.0, "delta_lst_diurnal": 8.0, "heat_persistence_index": 0.55, "gi_zscore_day": -0.5, "gi_pvalue_day": 0.6, "gi_zscore_night": -0.4, "gi_pvalue_night": 0.65, "day_hotspot_significance": null, "night_hotspot_significance": null, "hotspot_id": null, "city_temperature_percentile": 20.0, "temperature_rank": 10, "temperature_total_pixels": 50, "hotspot_confidence_score": null, "ndvi": 0.6, "ndbi": -0.1, "ndwi": -0.1, "building_density": 0.1, "distance_to_water_m": 200.0, "distance_to_roads_m": 30.0, "distance_to_parks_m": 800.0, "elevation_m": 12.0, "slope_deg": 1.5, "aspect_deg": 90.0, "thermal_retention_class": "Moderate Retention", "confidence_class": null, "hotspot_classification": "Not Significant / Noise", "sensor": "Landsat-8/9 & Sentinel-2", "capture_date": "2024-05-15", "scene_id": "LC09_L2SP_142051_20240515", "processing_version": "1.0.0"}, "geometry": {"type": "Point", "coordinates": [80.30799999999999, 13.118]}}, {"id": "39", "type": "Feature", "properties": {"point_id": 40, "latitude": 13.119, "longitude": 80.309, "utm_x_m": 425101.2418846485, "utm_y_m": 1450398.0604725454, "land_cover_code": 10, "is_urban": false, "is_rural": true, "is_water": false, "lst_day_celsius": 30.0, "lst_night_celsius": 22.0, "suhii_day_celsius": 0.0, "suhii_night_celsius": 0.0, "delta_lst_diurnal": 8.0, "heat_persistence_index": 0.55, "gi_zscore_day": -0.5, "gi_pvalue_day": 0.6, "gi_zscore_night": -0.4, "gi_pvalue_night": 0.65, "day_hotspot_significance": null, "night_hotspot_significance": null, "hotspot_id": null, "city_temperature_percentile": 20.0, "temperature_rank": 10, "temperature_total_pixels": 50, "hotspot_confidence_score": null, "ndvi": 0.6, "ndbi": -0.1, "ndwi": -0.1, "building_density": 0.1, "distance_to_water_m": 200.0, "distance_to_roads_m": 30.0, "distance_to_parks_m": 800.0, "elevation_m": 12.0, "slope_deg": 1.5, "aspect_deg": 90.0, "thermal_retention_class": "Moderate Retention", "confidence_class": null, "hotspot_classification": "Not Significant / Noise", "sensor": "Landsat-8/9 & Sentinel-2", "capture_date": "2024-05-15", "scene_id": "LC09_L2SP_142051_20240515", "processing_version": "1.0.0"}, "geometry": {"type": "Point", "coordinates": [80.309, 13.119]}}, {"id": "40", "type": "Feature", "properties": {"point_id": 41, "latitude": 13.12, "longitude": 80.31, "utm_x_m": 425209.94078041334, "utm_y_m": 1450508.3584477925, "land_cover_code": 10, "is_urban": false, "is_rural": true, "is_water": false, "lst_day_celsius": 30.0, "lst_night_celsius": 22.0, "suhii_day_celsius": 0.0, "suhii_night_celsius": 0.0, "delta_lst_diurnal": 8.0, "heat_persistence_index": 0.55, "gi_zscore_day": -0.5, "gi_pvalue_day": 0.6, "gi_zscore_night": -0.4, "gi_pvalue_night": 0.65, "day_hotspot_significance": null, "night_hotspot_significance": null, "hotspot_id": null, "city_temperature_percentile": 20.0, "temperature_rank": 10, "temperature_total_pixels": 50, "hotspot_confidence_score": null, "ndvi": 0.6, "ndbi": -0.1, "ndwi": -0.1, "building_density": 0.1, "distance_to_water_m": 200.0, "distance_to_roads_m": 30.0, "distance_to_parks_m": 800.0, "elevation_m": 12.0, "slope_deg": 1.5, "aspect_deg": 90.0, "thermal_retention_class": "Moderate Retention", "confidence_class": null, "hotspot_classification": "Not Significant / Noise", "sensor": "Landsat-8/9 & Sentinel-2", "capture_date": "2024-05-15", "scene_id": "LC09_L2SP_142051_20240515", "processing_version": "1.0.0"}, "geometry": {"type": "Point", "coordinates": [80.31, 13.12]}}, {"id": "41", "type": "Feature", "properties": {"point_id": 42, "latitude": 13.121, "longitude": 80.31099999999999, "utm_x_m": 425318.63880172535, "utm_y_m": 1450618.6568190625, "land_cover_code": 10, "is_urban": false, "is_rural": true, "is_water": false, "lst_day_celsius": 30.0, "lst_night_celsius": 22.0, "suhii_day_celsius": 0.0, "suhii_night_celsius": 0.0, "delta_lst_diurnal": 8.0, "heat_persistence_index": 0.55, "gi_zscore_day": -0.5, "gi_pvalue_day": 0.6, "gi_zscore_night": -0.4, "gi_pvalue_night": 0.65, "day_hotspot_significance": null, "night_hotspot_significance": null, "hotspot_id": null, "city_temperature_percentile": 20.0, "temperature_rank": 10, "temperature_total_pixels": 50, "hotspot_confidence_score": null, "ndvi": 0.6, "ndbi": -0.1, "ndwi": -0.1, "building_density": 0.1, "distance_to_water_m": 200.0, "distance_to_roads_m": 30.0, "distance_to_parks_m": 800.0, "elevation_m": 12.0, "slope_deg": 1.5, "aspect_deg": 90.0, "thermal_retention_class": "Moderate Retention", "confidence_class": null, "hotspot_classification": "Not Significant / Noise", "sensor": "Landsat-8/9 & Sentinel-2", "capture_date": "2024-05-15", "scene_id": "LC09_L2SP_142051_20240515", "processing_version": "1.0.0"}, "geometry": {"type": "Point", "coordinates": [80.31099999999999, 13.121]}}, {"id": "42", "type": "Feature", "properties": {"point_id": 43, "latitude": 13.122, "longitude": 80.312, "utm_x_m": 425427.3359485225, "utm_y_m": 1450728.9555864471, "land_cover_code": 10, "is_urban": false, "is_rural": true, "is_water": false, "lst_day_celsius": 30.0, "lst_night_celsius": 22.0, "suhii_day_celsius": 0.0, "suhii_night_celsius": 0.0, "delta_lst_diurnal": 8.0, "heat_persistence_index": 0.55, "gi_zscore_day": -0.5, "gi_pvalue_day": 0.6, "gi_zscore_night": -0.4, "gi_pvalue_night": 0.65, "day_hotspot_significance": null, "night_hotspot_significance": null, "hotspot_id": null, "city_temperature_percentile": 20.0, "temperature_rank": 10, "temperature_total_pixels": 50, "hotspot_confidence_score": null, "ndvi": 0.6, "ndbi": -0.1, "ndwi": -0.1, "building_density": 0.1, "distance_to_water_m": 200.0, "distance_to_roads_m": 30.0, "distance_to_parks_m": 800.0, "elevation_m": 12.0, "slope_deg": 1.5, "aspect_deg": 90.0, "thermal_retention_class": "Moderate Retention", "confidence_class": null, "hotspot_classification": "Not Significant / Noise", "sensor": "Landsat-8/9 & Sentinel-2", "capture_date": "2024-05-15", "scene_id": "LC09_L2SP_142051_20240515", "processing_version": "1.0.0"}, "geometry": {"type": "Point", "coordinates": [80.312, 13.122]}}, {"id": "43", "type": "Feature", "properties": {"point_id": 44, "latitude": 13.123, "longitude": 80.313, "utm_x_m": 425536.03222073446, "utm_y_m": 1450839.2547500387, "land_cover_code": 10, "is_urban": false, "is_rural": true, "is_water": false, "lst_day_celsius": 30.0, "lst_night_celsius": 22.0, "suhii_day_celsius": 0.0, "suhii_night_celsius": 0.0, "delta_lst_diurnal": 8.0, "heat_persistence_index": 0.55, "gi_zscore_day": -0.5, "gi_pvalue_day": 0.6, "gi_zscore_night": -0.4, "gi_pvalue_night": 0.65, "day_hotspot_significance": null, "night_hotspot_significance": null, "hotspot_id": null, "city_temperature_percentile": 20.0, "temperature_rank": 10, "temperature_total_pixels": 50, "hotspot_confidence_score": null, "ndvi": 0.6, "ndbi": -0.1, "ndwi": -0.1, "building_density": 0.1, "distance_to_water_m": 200.0, "distance_to_roads_m": 30.0, "distance_to_parks_m": 800.0, "elevation_m": 12.0, "slope_deg": 1.5, "aspect_deg": 90.0, "thermal_retention_class": "Moderate Retention", "confidence_class": null, "hotspot_classification": "Not Significant / Noise", "sensor": "Landsat-8/9 & Sentinel-2", "capture_date": "2024-05-15", "scene_id": "LC09_L2SP_142051_20240515", "processing_version": "1.0.0"}, "geometry": {"type": "Point", "coordinates": [80.313, 13.123]}}, {"id": "44", "type": "Feature", "properties": {"point_id": 45, "latitude": 13.124, "longitude": 80.314, "utm_x_m": 425644.727618291, "utm_y_m": 1450949.5543099307, "land_cover_code": 10, "is_urban": false, "is_rural": true, "is_water": false, "lst_day_celsius": 30.0, "lst_night_celsius": 22.0, "suhii_day_celsius": 0.0, "suhii_night_celsius": 0.0, "delta_lst_diurnal": 8.0, "heat_persistence_index": 0.55, "gi_zscore_day": -0.5, "gi_pvalue_day": 0.6, "gi_zscore_night": -0.4, "gi_pvalue_night": 0.65, "day_hotspot_significance": null, "night_hotspot_significance": null, "hotspot_id": null, "city_temperature_percentile": 20.0, "temperature_rank": 10, "temperature_total_pixels": 50, "hotspot_confidence_score": null, "ndvi": 0.6, "ndbi": -0.1, "ndwi": -0.1, "building_density": 0.1, "distance_to_water_m": 200.0, "distance_to_roads_m": 30.0, "distance_to_parks_m": 800.0, "elevation_m": 12.0, "slope_deg": 1.5, "aspect_deg": 90.0, "thermal_retention_class": "Moderate Retention", "confidence_class": null, "hotspot_classification": "Not Significant / Noise", "sensor": "Landsat-8/9 & Sentinel-2", "capture_date": "2024-05-15", "scene_id": "LC09_L2SP_142051_20240515", "processing_version": "1.0.0"}, "geometry": {"type": "Point", "coordinates": [80.314, 13.124]}}, {"id": "45", "type": "Feature", "properties": {"point_id": 46, "latitude": 13.125, "longitude": 80.315, "utm_x_m": 425753.42214113014, "utm_y_m": 1451059.854266215, "land_cover_code": 10, "is_urban": false, "is_rural": true, "is_water": false, "lst_day_celsius": 30.0, "lst_night_celsius": 22.0, "suhii_day_celsius": 0.0, "suhii_night_celsius": 0.0, "delta_lst_diurnal": 8.0, "heat_persistence_index": 0.55, "gi_zscore_day": -0.5, "gi_pvalue_day": 0.6, "gi_zscore_night": -0.4, "gi_pvalue_night": 0.65, "day_hotspot_significance": null, "night_hotspot_significance": null, "hotspot_id": null, "city_temperature_percentile": 20.0, "temperature_rank": 10, "temperature_total_pixels": 50, "hotspot_confidence_score": null, "ndvi": 0.6, "ndbi": -0.1, "ndwi": -0.1, "building_density": 0.1, "distance_to_water_m": 200.0, "distance_to_roads_m": 30.0, "distance_to_parks_m": 800.0, "elevation_m": 12.0, "slope_deg": 1.5, "aspect_deg": 90.0, "thermal_retention_class": "Moderate Retention", "confidence_class": null, "hotspot_classification": "Not Significant / Noise", "sensor": "Landsat-8/9 & Sentinel-2", "capture_date": "2024-05-15", "scene_id": "LC09_L2SP_142051_20240515", "processing_version": "1.0.0"}, "geometry": {"type": "Point", "coordinates": [80.315, 13.125]}}, {"id": "46", "type": "Feature", "properties": {"point_id": 47, "latitude": 13.126, "longitude": 80.316, "utm_x_m": 425862.1157891802, "utm_y_m": 1451170.154618984, "land_cover_code": 10, "is_urban": false, "is_rural": true, "is_water": false, "lst_day_celsius": 30.0, "lst_night_celsius": 22.0, "suhii_day_celsius": 0.0, "suhii_night_celsius": 0.0, "delta_lst_diurnal": 8.0, "heat_persistence_index": 0.55, "gi_zscore_day": -0.5, "gi_pvalue_day": 0.6, "gi_zscore_night": -0.4, "gi_pvalue_night": 0.65, "day_hotspot_significance": null, "night_hotspot_significance": null, "hotspot_id": null, "city_temperature_percentile": 20.0, "temperature_rank": 10, "temperature_total_pixels": 50, "hotspot_confidence_score": null, "ndvi": 0.6, "ndbi": -0.1, "ndwi": -0.1, "building_density": 0.1, "distance_to_water_m": 200.0, "distance_to_roads_m": 30.0, "distance_to_parks_m": 800.0, "elevation_m": 12.0, "slope_deg": 1.5, "aspect_deg": 90.0, "thermal_retention_class": "Moderate Retention", "confidence_class": null, "hotspot_classification": "Not Significant / Noise", "sensor": "Landsat-8/9 & Sentinel-2", "capture_date": "2024-05-15", "scene_id": "LC09_L2SP_142051_20240515", "processing_version": "1.0.0"}, "geometry": {"type": "Point", "coordinates": [80.316, 13.126]}}, {"id": "47", "type": "Feature", "properties": {"point_id": 48, "latitude": 13.127, "longitude": 80.317, "utm_x_m": 425970.8085623751, "utm_y_m": 1451280.4553683312, "land_cover_code": 10, "is_urban": false, "is_rural": true, "is_water": false, "lst_day_celsius": 30.0, "lst_night_celsius": 22.0, "suhii_day_celsius": 0.0, "suhii_night_celsius": 0.0, "delta_lst_diurnal": 8.0, "heat_persistence_index": 0.55, "gi_zscore_day": -0.5, "gi_pvalue_day": 0.6, "gi_zscore_night": -0.4, "gi_pvalue_night": 0.65, "day_hotspot_significance": null, "night_hotspot_significance": null, "hotspot_id": null, "city_temperature_percentile": 20.0, "temperature_rank": 10, "temperature_total_pixels": 50, "hotspot_confidence_score": null, "ndvi": 0.6, "ndbi": -0.1, "ndwi": -0.1, "building_density": 0.1, "distance_to_water_m": 200.0, "distance_to_roads_m": 30.0, "distance_to_parks_m": 800.0, "elevation_m": 12.0, "slope_deg": 1.5, "aspect_deg": 90.0, "thermal_retention_class": "Moderate Retention", "confidence_class": null, "hotspot_classification": "Not Significant / Noise", "sensor": "Landsat-8/9 & Sentinel-2", "capture_date": "2024-05-15", "scene_id": "LC09_L2SP_142051_20240515", "processing_version": "1.0.0"}, "geometry": {"type": "Point", "coordinates": [80.317, 13.127]}}, {"id": "48", "type": "Feature", "properties": {"point_id": 49, "latitude": 13.128, "longitude": 80.318, "utm_x_m": 426079.5004606473, "utm_y_m": 1451390.756514348, "land_cover_code": 10, "is_urban": false, "is_rural": true, "is_water": false, "lst_day_celsius": 30.0, "lst_night_celsius": 22.0, "suhii_day_celsius": 0.0, "suhii_night_celsius": 0.0, "delta_lst_diurnal": 8.0, "heat_persistence_index": 0.55, "gi_zscore_day": -0.5, "gi_pvalue_day": 0.6, "gi_zscore_night": -0.4, "gi_pvalue_night": 0.65, "day_hotspot_significance": null, "night_hotspot_significance": null, "hotspot_id": null, "city_temperature_percentile": 20.0, "temperature_rank": 10, "temperature_total_pixels": 50, "hotspot_confidence_score": null, "ndvi": 0.6, "ndbi": -0.1, "ndwi": -0.1, "building_density": 0.1, "distance_to_water_m": 200.0, "distance_to_roads_m": 30.0, "distance_to_parks_m": 800.0, "elevation_m": 12.0, "slope_deg": 1.5, "aspect_deg": 90.0, "thermal_retention_class": "Moderate Retention", "confidence_class": null, "hotspot_classification": "Not Significant / Noise", "sensor": "Landsat-8/9 & Sentinel-2", "capture_date": "2024-05-15", "scene_id": "LC09_L2SP_142051_20240515", "processing_version": "1.0.0"}, "geometry": {"type": "Point", "coordinates": [80.318, 13.128]}}, {"id": "49", "type": "Feature", "properties": {"point_id": 50, "latitude": 13.129, "longitude": 80.319, "utm_x_m": 426188.19148393057, "utm_y_m": 1451501.058057127, "land_cover_code": 10, "is_urban": false, "is_rural": true, "is_water": false, "lst_day_celsius": 30.0, "lst_night_celsius": 22.0, "suhii_day_celsius": 0.0, "suhii_night_celsius": 0.0, "delta_lst_diurnal": 8.0, "heat_persistence_index": 0.55, "gi_zscore_day": -0.5, "gi_pvalue_day": 0.6, "gi_zscore_night": -0.4, "gi_pvalue_night": 0.65, "day_hotspot_significance": null, "night_hotspot_significance": null, "hotspot_id": null, "city_temperature_percentile": 20.0, "temperature_rank": 10, "temperature_total_pixels": 50, "hotspot_confidence_score": null, "ndvi": 0.6, "ndbi": -0.1, "ndwi": -0.1, "building_density": 0.1, "distance_to_water_m": 200.0, "distance_to_roads_m": 30.0, "distance_to_parks_m": 800.0, "elevation_m": 12.0, "slope_deg": 1.5, "aspect_deg": 90.0, "thermal_retention_class": "Moderate Retention", "confidence_class": null, "hotspot_classification": "Not Significant / Noise", "sensor": "Landsat-8/9 & Sentinel-2", "capture_date": "2024-05-15", "scene_id": "LC09_L2SP_142051_20240515", "processing_version": "1.0.0"}, "geometry": {"type": "Point", "coordinates": [80.319, 13.129]}}]}